INMARSAT 4-F3           
1 33278U 08039A   26159.25301122 -.00000126  00000+0  00000+0 0  9990
2 33278   4.2858  31.5988 0002781  47.5932 170.5236  1.00272507 46451
NIMIQ 4                 
1 33373U 08044A   26159.47004928 -.00000204  00000+0  00000+0 0  9997
2 33373   0.0120  38.3324 0002029  28.6736 277.0662  1.00270461 64890
GALAXY 19 (G-19)        
1 33376U 08045A   26159.53344955 -.00000123  00000+0  00000+0 0  9995
2 33376   0.0281  92.2328 0002744 343.2744 276.4696  1.00271843 64810
ASTRA 1M                
1 33436U 08057A   26159.49006939  .00000137  00000+0  00000+0 0  9991
2 33436   0.2729  82.3477 0005044  21.3369 349.0363  1.00274410 45656
EUTELSAT HOTBIRD 13C    
1 33459U 08065A   26159.47637600 -.00000267  00000+0  00000+0 0  9993
2 33459   2.9269  79.2941 0003699 359.9777 298.7900  1.00271062 47252
EXPRESS-AM44            
1 33595U 09007A   26159.34150382 -.00000073  00000+0  00000+0 0  9999
2 33595   3.4401  78.5014 0004371 353.6185 296.5601  1.00271959 52190
NSS-9                   
1 33749U 09008A   26159.46572762  .00000088  00000+0  00000+0 0  9999
2 33749   1.2382  82.7430 0002159 343.9684 180.8701  1.00271511 63431
TELSTAR 11N             
1 34111U 09009A   26159.33630377 -.00000235  00000+0  00000+0 0  9992
2 34111   0.0154  19.6280 0002518  47.3710 273.2397  1.00270922 46158
WGS F2 (USA 204)        
1 34713U 09017A   26159.14836492  .00000083  00000+0  00000+0 0  9994
2 34713   0.0182 338.1020 0000430 252.7490 136.6262  1.00272195 45523
SES-7 (PROTOSTAR 2)     
1 34941U 09027A   26159.50777813 -.00000329  00000+0  00000+0 0  9993
2 34941   0.0630  79.7060 0000369 323.2430 145.0158  1.00272139 62542
MEASAT-3A               
1 35362U 09032A   26159.49142050 -.00000094  00000+0  00000+0 0  9993
2 35362   0.0229   3.1306 0003061  71.4489 159.2171  1.00271828  7945
GOES 14                 
1 35491U 09033A   26159.49697284 -.00000240  00000+0  00000+0 0  9994
2 35491   1.6666  83.1493 0001948   4.3702 135.0857  1.00114015  6508
FM-5                    
1 35493U 09034A   26159.32668374 -.00000185  00000+0  00000+0 0  9995
2 35493   0.0186 289.2244 0000597  18.1555 340.7996  1.00272501 46554
TERRESTAR-1             
1 35496U 09035A   26159.46409100 -.00000043  00000+0  00000+0 0  9997
2 35496   5.1794  48.8041 0003308  21.6666 242.4471  1.00280422 62046
ASIASAT 5               
1 35696U 09042A   26159.50621811 -.00000291  00000+0  00000+0 0  9992
2 35696   0.0147  55.6338 0001491   3.5354 120.4739  1.00271686 61620
JCSAT-12 (JCSAT-RA)     
1 35755U 09044A   26159.52336508 -.00000312  00000+0  00000+0 0  9992
2 35755   0.0093 323.6742 0000165 148.5958 105.0946  1.00271332 61526
OPTUS D3                
1 35756U 09044B   26159.49142050 -.00000129  00000+0  00000+0 0  9992
2 35756   0.8654 269.5811 0003015 169.3076 151.0500  1.00272798 61470
NIMIQ 5                 
1 35873U 09050A   26159.47186931 -.00000241  00000+0  00000+0 0  9998
2 35873   0.0346 274.2611 0002960 159.7774 280.0033  1.00273110 61256
AMAZONAS 2              
1 35942U 09054A   26159.47204264 -.00000243  00000+0  00000+0 0  9991
2 35942   1.7921  83.1642 0003451 350.7469 280.9053  1.00272132 61097
COMSATBW-1              
1 35943U 09054B   26159.49876476  .00000040  00000+0  00000+0 0  9998
2 35943   0.0591  76.1220 0002985   6.2840  57.0414  1.00271815 61220
NSS-12                  
1 36032U 09058A   26159.49763808  .00000088  00000+0  00000+0 0  9998
2 36032   0.0675  64.6268 0004899 343.0845  85.3239  1.00270825 60835
THOR 6                  
1 36033U 09058B   26159.34358382  .00000006  00000+0  00000+0 0  9990
2 36033   0.0420 119.7538 0002202 345.2506 274.5734  1.00271925 60913
INTELSAT 14 (IS-14)     
1 36097U 09064A   26159.26349325 -.00000258  00000+0  00000+0 0  9995
2 36097   0.0150 335.8760 0002803 117.4459 213.2034  1.00270969 60510
EUTELSAT 36B            
1 36101U 09065A   26159.49633808  .00000128  00000+0  00000+0 0  9994
2 36101   0.4682  81.0117 0006062 355.2665  49.7762  1.00270820 60626
INTELSAT 15 (IS-15)     
1 36106U 09067A   26159.50318477 -.00000169  00000+0  00000+0 0  9991
2 36106   0.0124 329.2573 0002286 111.0886  82.8468  1.00271434 41147
WGS F3 (USA 211)        
1 36108U 09068A   26159.46785190  .00000080  00000+0  00000+0 0  9990
2 36108   0.3345  85.8076 0000338  28.2389 181.2633  1.00269461 46503
DIRECTV 12              
1 36131U 09075A   26159.46299448 -.00000087  00000+0  00000+0 0  9998
2 36131   0.0438 143.8857 0000324 286.9865 249.9377  1.00270319 46464
BEIDOU-2 G1             
1 36287U 10001A   26159.51411346 -.00000264  00000+0  00000+0 0  9997
2 36287   4.2723  60.4329 0002679 306.6691 215.3404  1.00274524 60083
SDO                     
1 36395U 10005A   26159.32339038 -.00000060  00000+0  00000+0 0  9991
2 36395  34.6325  86.4781 0001516  53.0773 131.5755  1.00270840 59972
INTELSAT 16 (IS-16)     
1 36397U 10006A   26159.32859042 -.00000229  00000+0  00000+0 0  9993
2 36397   0.0113 313.3517 0002161 141.4643 204.0108  1.00270005 59566
EWS-G2 (GOES 15)        
1 36411U 10008A   26159.49893808  .00000035  00000+0  00000+0 0  9992
2 36411   1.2528  83.0061 0005476  38.2868  18.8165  1.00275841 59551
ECHOSTAR 14             
1 36499U 10010A   26159.46276926  .00000016  00000+0  00000+0 0  9993
2 36499   0.0469  90.6638 0002462   3.6032 210.2851  1.00272048 46465
