OBJECT_NAME,OBJECT_ID,EPOCH,MEAN_MOTION,ECCENTRICITY,INCLINATION,RA_OF_ASC_NODE,ARG_OF_PERICENTER,MEAN_ANOMALY,EPHEMERIS_TYPE,CLASSIFICATION_TYPE,NORAD_CAT_ID,ELEMENT_SET_NO,REV_AT_EPOCH,BSTAR,MEAN_MOTION_DOT,MEAN_MOTION_DDOT
INMARSAT 4-F3,2008-039A,2026-06-08T06:04:20.169408,1.00272507,.0002781,4.2858,31.5988,47.5932,170.5236,0,U,33278,999,4645,0,-.126E-5,0
NIMIQ 4,2008-044A,2026-06-08T11:16:52.257792,1.00270461,.0002029,0.0120,38.3324,28.6736,277.0662,0,U,33373,999,6489,0,-.204E-5,0
GALAXY 19 (G-19),2008-045A,2026-06-08T12:48:10.041120,1.00271843,.0002744,0.0281,92.2328,343.2744,276.4696,0,U,33376,999,6481,0,-.123E-5,0
ASTRA 1M,2008-057A,2026-06-08T11:45:41.995296,1.00274410,.0005044,0.2729,82.3477,21.3369,349.0363,0,U,33436,999,4565,0,.137E-5,0
EUTELSAT HOTBIRD 13C,2008-065A,2026-06-08T11:25:58.886400,1.00271062,.0003699,2.9269,79.2941,359.9777,298.7900,0,U,33459,999,4725,0,-.267E-5,0
EXPRESS-AM44,2009-007A,2026-06-08T08:11:45.930048,1.00271959,.0004371,3.4401,78.5014,353.6185,296.5601,0,U,33595,999,5219,0,-.73E-6,0
NSS-9,2009-008A,2026-06-08T11:10:38.866368,1.00271511,.0002159,1.2382,82.7430,343.9684,180.8701,0,U,33749,999,6343,0,.88E-6,0
TELSTAR 11N,2009-009A,2026-06-08T08:04:16.645728,1.00270922,.0002518,0.0154,19.6280,47.3710,273.2397,0,U,34111,999,4615,0,-.235E-5,0
WGS F2 (USA 204),2009-017A,2026-06-08T03:33:38.729088,1.00272195,.00004306,0.0182,338.1020,252.7490,136.6262,0,U,34713,999,4552,0,.83E-6,0
SES-7 (PROTOSTAR 2),2009-027A,2026-06-08T12:11:12.030432,1.00272139,.0000369,0.0630,79.7060,323.2430,145.0158,0,U,34941,999,6254,0,-.329E-5,0
MEASAT-3A,2009-032A,2026-06-08T11:47:38.731200,1.00271828,.0003061,0.0229,3.1306,71.4489,159.2171,0,U,35362,999,794,0,-.94E-6,0
GOES 14,2009-033A,2026-06-08T11:55:38.453376,1.00114015,.0001948,1.6666,83.1493,4.3702,135.0857,0,U,35491,999,650,0,-.24E-5,0
FM-5,2009-034A,2026-06-08T07:50:25.475136,1.00272501,.0000597,0.0186,289.2244,18.1555,340.7996,0,U,35493,999,4655,0,-.185E-5,0
TERRESTAR-1,2009-035A,2026-06-08T11:08:17.462400,1.00280422,.0003308,5.1794,48.8041,21.6666,242.4471,0,U,35496,999,6204,0,-.43E-6,0
ASIASAT 5,2009-042A,2026-06-08T12:08:57.244704,1.00271686,.0001491,0.0147,55.6338,3.5354,120.4739,0,U,35696,999,6162,0,-.291E-5,0
JCSAT-12 (JCSAT-RA),2009-044A,2026-06-08T12:33:38.742912,1.00271332,.0000165,0.0093,323.6742,148.5958,105.0946,0,U,35755,999,6152,0,-.312E-5,0
OPTUS D3,2009-044B,2026-06-08T11:47:38.731200,1.00272798,.0003015,0.8654,269.5811,169.3076,151.0500,0,U,35756,999,6147,0,-.129E-5,0
NIMIQ 5,2009-050A,2026-06-08T11:19:29.508384,1.00273110,.000296,0.0346,274.2611,159.7774,280.0033,0,U,35873,999,6125,0,-.241E-5,0
AMAZONAS 2,2009-054A,2026-06-08T11:19:44.484096,1.00272132,.0003451,1.7921,83.1642,350.7469,280.9053,0,U,35942,999,6109,0,-.243E-5,0
COMSATBW-1,2009-054B,2026-06-08T11:58:13.275264,1.00271815,.0002985,0.0591,76.1220,6.2840,57.0414,0,U,35943,999,6122,0,.4E-6,0
NSS-12,2009-058A,2026-06-08T11:56:35.930112,1.00270825,.0004899,0.0675,64.6268,343.0845,85.3239,0,U,36032,999,6083,0,.88E-6,0
THOR 6,2009-058B,2026-06-08T08:14:45.642048,1.00271925,.0002202,0.0420,119.7538,345.2506,274.5734,0,U,36033,999,6091,0,.6E-7,0
INTELSAT 14 (IS-14),2009-064A,2026-06-08T06:19:25.816800,1.00270969,.0002803,0.0150,335.8760,117.4459,213.2034,0,U,36097,999,6051,0,-.258E-5,0
EUTELSAT 36B,2009-065A,2026-06-08T11:54:43.610112,1.00270820,.0006062,0.4682,81.0117,355.2665,49.7762,0,U,36101,999,6062,0,.128E-5,0
INTELSAT 15 (IS-15),2009-067A,2026-06-08T12:04:35.164128,1.00271434,.0002286,0.0124,329.2573,111.0886,82.8468,0,U,36106,999,4114,0,-.169E-5,0
WGS F3 (USA 211),2009-068A,2026-06-08T11:13:42.404160,1.00269461,.0000338,0.3345,85.8076,28.2389,181.2633,0,U,36108,999,4650,0,.8E-6,0
DIRECTV 12,2009-075A,2026-06-08T11:06:42.723072,1.00270319,.0000324,0.0438,143.8857,286.9865,249.9377,0,U,36131,999,4646,0,-.87E-6,0
BEIDOU-2 G1,2010-001A,2026-06-08T12:20:19.402944,1.00274524,.0002679,4.2723,60.4329,306.6691,215.3404,0,U,36287,999,6008,0,-.264E-5,0
SDO,2010-005A,2026-06-08T07:45:40.928832,1.00270840,.0001516,34.6325,86.4781,53.0773,131.5755,0,U,36395,999,5997,0,-.6E-6,0
INTELSAT 16 (IS-16),2010-006A,2026-06-08T07:53:10.212288,1.00270005,.0002161,0.0113,313.3517,141.4643,204.0108,0,U,36397,999,5956,0,-.229E-5,0
EWS-G2 (GOES 15),2010-008A,2026-06-08T11:58:28.250112,1.00275841,.0005476,1.2528,83.0061,38.2868,18.8165,0,U,36411,999,5955,0,.35E-6,0
ECHOSTAR 14,2010-010A,2026-06-08T11:06:23.264064,1.00272048,.0002462,0.0469,90.6638,3.6032,210.2851,0,U,36499,999,4646,0,.16E-6,0
